[{"OBJECT_NAME":"STARLINK-31949","OBJECT_ID":"2024-100G","EPOCH":"2025-12-17T03:31:23.734272","MEAN_MOTION":15.27594028,"ECCENTRICITY":0.00019795,"INCLINATION":43.0005,"RA_OF_ASC_NODE":231.4973,"ARG_OF_PERICENTER":256.8006,"MEAN_ANOMALY":103.2625,"EPHEMERIS_TYPE":0,"CLASSIFICATION_TYPE":"U","NORAD_CAT_ID":59891,"ELEMENT_SET_NO":999,"REV_AT_EPOCH":8843,"BSTAR":0.00015370829,"MEAN_MOTION_DOT":3.972e-5,"MEAN_MOTION_DDOT":0},{"OBJECT_NAME":"STARLINK-31977","OBJECT_ID":"2024-100H","EPOCH":"2025-12-17T01:29:03.793344","MEAN_MOTION":15.27580819,"ECCENTRICITY":0.00015239,"INCLINATION":42.9997,"RA_OF_ASC_NODE":224.8039,"ARG_OF_PERICENTER":256.0211,"MEAN_ANOMALY":104.0471,"EPHEMERIS_TYPE":0,"CLASSIFICATION_TYPE":"U","NORAD_CAT_ID":59892,"ELEMENT_SET_NO":999,"REV_AT_EPOCH":8860,"BSTAR":9.4415189e-5,"MEAN_MOTION_DOT":2.337e-5,"MEAN_MOTION_DDOT":0},{"OBJECT_NAME":"STARLINK-31963","OBJECT_ID":"2024-100J","EPOCH":"2025-12-17T02:17:36.116160","MEAN_MOTION":15.27617306,"ECCENTRICITY":0.00012427,"INCLINATION":42.9986,"RA_OF_ASC_NODE":231.9756,"ARG_OF_PERICENTER":270.4168,"MEAN_ANOMALY":89.6541,"EPHEMERIS_TYPE":0,"CLASSIFICATION_TYPE":"U","NORAD_CAT_ID":59893,"ELEMENT_SET_NO":999,"REV_AT_EPOCH":8852,"BSTAR":-0.00023707705,"MEAN_MOTION_DOT":-6.787e-5,"MEAN_MOTION_DDOT":0},{"OBJECT_NAME":"STARLINK-31961","OBJECT_ID":"2024-100K","EPOCH":"2025-12-17T01:54:57.247200","MEAN_MOTION":15.27577029,"ECCENTRICITY":0.00011527,"INCLINATION":42.9998,"RA_OF_ASC_NODE":224.935,"ARG_OF_PERICENTER":259.0571,"MEAN_ANOMALY":101.0151,"EPHEMERIS_TYPE":0,"CLASSIFICATION_TYPE":"U","NORAD_CAT_ID":59894,"ELEMENT_SET_NO":999,"REV_AT_EPOCH":8860,"BSTAR":5.3105051e-5,"MEAN_MOTION_DOT":1.199e-5,"MEAN_MOTION_DDOT":0},{"OBJECT_NAME":"STARLINK-31964","OBJECT_ID":"2024-100L","EPOCH":"2025-12-17T01:25:47.712000","MEAN_MOTION":15.27585946,"ECCENTRICITY":0.00010901,"INCLINATION":43.0014,"RA_OF_ASC_NODE":231.7082,"ARG_OF_PERICENTER":256.4136,"MEAN_ANOMALY":103.6595,"EPHEMERIS_TYPE":0,"CLASSIFICATION_TYPE":"U","NORAD_CAT_ID":59895,"ELEMENT_SET_NO":999,"REV_AT_EPOCH":8847,"BSTAR":6.0102229e-5,"MEAN_MOTION_DOT":1.392e-5,"MEAN_MOTION_DDOT":0},{"OBJECT_NAME":"STARLINK-31905","OBJECT_ID":"2024-100M","EPOCH":"2025-12-17T02:14:36.640896","MEAN_MOTION":15.27582227,"ECCENTRICITY":8.158e-5,"INCLINATION":43.0005,"RA_OF_ASC_NODE":228.5012,"ARG_OF_PERICENTER":263.7616,"MEAN_ANOMALY":96.3143,"EPHEMERIS_TYPE":0,"CLASSIFICATION_TYPE":"U","NORAD_CAT_ID":59896,"ELEMENT_SET_NO":999,"REV_AT_EPOCH":8856,"BSTAR":6.9691345e-5,"MEAN_MOTION_DOT":1.656e-5,"MEAN_MOTION_DDOT":0},{"OBJECT_NAME":"STARLINK-31928","OBJECT_ID":"2024-100N","EPOCH":"2025-12-17T01:00:06.266880","MEAN_MOTION":15.27589435,"ECCENTRICITY":0.00012516,"INCLINATION":42.9999,"RA_OF_ASC_NODE":232.4351,"ARG_OF_PERICENTER":265.5238,"MEAN_ANOMALY":94.5471,"EPHEMERIS_TYPE":0,"CLASSIFICATION_TYPE":"U","NORAD_CAT_ID":59897,"ELEMENT_SET_NO":999,"REV_AT_EPOCH":8841,"BSTAR":0.0001520051,"MEAN_MOTION_DOT":3.924e-5,"MEAN_MOTION_DDOT":0},{"OBJECT_NAME":"STARLINK-31953","OBJECT_ID":"2024-100P","EPOCH":"2025-12-17T02:09:03.055680","MEAN_MOTION":15.27606774,"ECCENTRICITY":0.0001212,"INCLINATION":42.9996,"RA_OF_ASC_NODE":228.4723,"ARG_OF_PERICENTER":271.6766,"MEAN_ANOMALY":88.3947,"EPHEMERIS_TYPE":0,"CLASSIFICATION_TYPE":"U","NORAD_CAT_ID":59898,"ELEMENT_SET_NO":999,"REV_AT_EPOCH":8856,"BSTAR":-0.00010967878,"MEAN_MOTION_DOT":-3.281e-5,"MEAN_MOTION_DDOT":0},{"OBJECT_NAME":"STARLINK-31942","OBJECT_ID":"2024-100Q","EPOCH":"2025-12-17T01:46:10.537248","MEAN_MOTION":15.27574155,"ECCENTRICITY":0.00015076,"INCLINATION":43.0017,"RA_OF_ASC_NODE":231.817,"ARG_OF_PERICENTER":268.6759,"MEAN_ANOMALY":91.392,"EPHEMERIS_TYPE":0,"CLASSIFICATION_TYPE":"U","NORAD_CAT_ID":59899,"ELEMENT_SET_NO":999,"REV_AT_EPOCH":8851,"BSTAR":2.802276e-5,"MEAN_MOTION_DOT":5.09e-6,"MEAN_MOTION_DDOT":0},{"OBJECT_NAME":"STARLINK-31676","OBJECT_ID":"2024-100R","EPOCH":"2025-12-17T00:37:54.107616","MEAN_MOTION":15.27586716,"ECCENTRICITY":0.00012123,"INCLINATION":43.0009,"RA_OF_ASC_NODE":232.3165,"ARG_OF_PERICENTER":258.9905,"MEAN_ANOMALY":101.0811,"EPHEMERIS_TYPE":0,"CLASSIFICATION_TYPE":"U","NORAD_CAT_ID":59900,"ELEMENT_SET_NO":999,"REV_AT_EPOCH":8840,"BSTAR":4.9775921e-5,"MEAN_MOTION_DOT":1.108e-5,"MEAN_MOTION_DDOT":0},{"OBJECT_NAME":"STARLINK-31908","OBJECT_ID":"2024-100S","EPOCH":"2025-12-17T01:49:23.907360","MEAN_MOTION":15.27581209,"ECCENTRICITY":0.00014047,"INCLINATION":42.9993,"RA_OF_ASC_NODE":224.905,"ARG_OF_PERICENTER":262.7354,"MEAN_ANOMALY":97.3338,"EPHEMERIS_TYPE":0,"CLASSIFICATION_TYPE":"U","NORAD_CAT_ID":59901,"ELEMENT_SET_NO":999,"REV_AT_EPOCH":8859,"BSTAR":4.3720526e-5,"MEAN_MOTION_DOT":9.41e-6,"MEAN_MOTION_DDOT":0},{"OBJECT_NAME":"STARLINK-31914","OBJECT_ID":"2024-100T","EPOCH":"2025-12-17T02:28:42.769056","MEAN_MOTION":15.27578401,"ECCENTRICITY":0.00011037,"INCLINATION":42.9984,"RA_OF_ASC_NODE":232.0316,"ARG_OF_PERICENTER":265.0754,"MEAN_ANOMALY":94.9972,"EPHEMERIS_TYPE":0,"CLASSIFICATION_TYPE":"U","NORAD_CAT_ID":59902,"ELEMENT_SET_NO":999,"REV_AT_EPOCH":8841,"BSTAR":3.0078284e-5,"MEAN_MOTION_DOT":5.66e-6,"MEAN_MOTION_DDOT":0},{"OBJECT_NAME":"STARLINK-31850","OBJECT_ID":"2024-100U","EPOCH":"2025-12-17T01:33:11.596320","MEAN_MOTION":15.27585056,"ECCENTRICITY":0.00012805,"INCLINATION":43.0029,"RA_OF_ASC_NODE":231.7352,"ARG_OF_PERICENTER":274.9422,"MEAN_ANOMALY":85.1283,"EPHEMERIS_TYPE":0,"CLASSIFICATION_TYPE":"U","NORAD_CAT_ID":59903,"ELEMENT_SET_NO":999,"REV_AT_EPOCH":8846,"BSTAR":8.8663318e-5,"MEAN_MOTION_DOT":2.179e-5,"MEAN_MOTION_DDOT":0},{"OBJECT_NAME":"STARLINK-31924","OBJECT_ID":"2024-100V","EPOCH":"2025-12-17T01:51:42.448032","MEAN_MOTION":15.27584664,"ECCENTRICITY":0.00013013,"INCLINATION":43.0011,"RA_OF_ASC_NODE":231.8435,"ARG_OF_PERICENTER":265.8282,"MEAN_ANOMALY":94.2421,"EPHEMERIS_TYPE":0,"CLASSIFICATION_TYPE":"U","NORAD_CAT_ID":59904,"ELEMENT_SET_NO":999,"REV_AT_EPOCH":8851,"BSTAR":8.3661467e-5,"MEAN_MOTION_DOT":2.041e-5,"MEAN_MOTION_DDOT":0},{"OBJECT_NAME":"STARLINK-31898","OBJECT_ID":"2024-100W","EPOCH":"2025-12-17T02:05:21.311808","MEAN_MOTION":15.27578168,"ECCENTRICITY":0.00011603,"INCLINATION":42.9993,"RA_OF_ASC_NODE":228.4514,"ARG_OF_PERICENTER":272.7025,"MEAN_ANOMALY":87.3694,"EPHEMERIS_TYPE":0,"CLASSIFICATION_TYPE":"U","NORAD_CAT_ID":59905,"ELEMENT_SET_NO":999,"REV_AT_EPOCH":8855,"BSTAR":0.00010855671,"MEAN_MOTION_DOT":2.726e-5,"MEAN_MOTION_DDOT":0},{"OBJECT_NAME":"STARLINK-31861","OBJECT_ID":"2024-100X","EPOCH":"2025-12-17T00:07:50.013408","MEAN_MOTION":15.27582263,"ECCENTRICITY":0.00014104,"INCLINATION":43.0002,"RA_OF_ASC_NODE":225.2072,"ARG_OF_PERICENTER":279.6205,"MEAN_ANOMALY":80.4488,"EPHEMERIS_TYPE":0,"CLASSIFICATION_TYPE":"U","NORAD_CAT_ID":59906,"ELEMENT_SET_NO":999,"REV_AT_EPOCH":8858,"BSTAR":7.0445535e-5,"MEAN_MOTION_DOT":1.677e-5,"MEAN_MOTION_DDOT":0}]
