STARLINK-31949          
1 59891U 24100G   25351.14680248  .00003972  00000+0  15371-3 0  9998
2 59891  43.0005 231.4973 0001979 256.8006 103.2625 15.27594028 88433
STARLINK-31977          
1 59892U 24100H   25351.06184946  .00002337  00000+0  94415-4 0  9995
2 59892  42.9997 224.8039 0001523 256.0211 104.0471 15.27580819 88606
STARLINK-31963          
1 59893U 24100J   25351.09555690 -.00006787  00000+0 -23708-3 0  9998
2 59893  42.9986 231.9756 0001242 270.4168  89.6541 15.27617306 88528
STARLINK-31961          
1 59894U 24100K   25351.07982925  .00001199  00000+0  53105-4 0  9997
2 59894  42.9998 224.9350 0001152 259.0571 101.0151 15.27577029 88607
STARLINK-31964          
1 59895U 24100L   25351.05958000  .00001392  00000+0  60102-4 0  9993
2 59895  43.0014 231.7082 0001090 256.4136 103.6595 15.27585946 88478
STARLINK-31905          
1 59896U 24100M   25351.09347964  .00001656  00000+0  69691-4 0  9994
2 59896  43.0005 228.5012 0000815 263.7616  96.3143 15.27582227 88560
STARLINK-31928          
1 59897U 24100N   25351.04173920  .00003924  00000+0  15201-3 0  9996
2 59897  42.9999 232.4351 0001251 265.5238  94.5471 15.27589435 88412
STARLINK-31953          
1 59898U 24100P   25351.08961870 -.00003281  00000+0 -10968-3 0  9993
2 59898  42.9996 228.4723 0001212 271.6766  88.3947 15.27606774 88560
STARLINK-31942          
1 59899U 24100Q   25351.07373307  .00000509  00000+0  28023-4 0  9995
2 59899  43.0017 231.8170 0001507 268.6759  91.3920 15.27574155 88513
STARLINK-31676          
1 59900U 24100R   25351.02632069  .00001108  00000+0  49776-4 0  9990
2 59900  43.0009 232.3165 0001212 258.9905 101.0811 15.27586716 88407
STARLINK-31908          
1 59901U 24100S   25351.07597115  .00000941  00000+0  43721-4 0  9996
2 59901  42.9993 224.9050 0001404 262.7354  97.3338 15.27581209 88595
STARLINK-31914          
1 59902U 24100T   25351.10327279  .00000566  00000+0  30078-4 0  9997
2 59902  42.9984 232.0316 0001103 265.0754  94.9972 15.27578401 88415
STARLINK-31850          
1 59903U 24100U   25351.06471755  .00002179  00000+0  88663-4 0  9997
2 59903  43.0029 231.7352 0001280 274.9422  85.1283 15.27585056 88467
STARLINK-31924          
1 59904U 24100V   25351.07757463  .00002041  00000+0  83661-4 0  9993
2 59904  43.0011 231.8435 0001301 265.8282  94.2421 15.27584664 88514
STARLINK-31898          
1 59905U 24100W   25351.08705222  .00002726  00000+0  10856-3 0  9996
2 59905  42.9993 228.4514 0001160 272.7025  87.3694 15.27578168 88558
STARLINK-31861          
1 59906U 24100X   25351.00543997  .00001677  00000+0  70446-4 0  9994
2 59906  43.0002 225.2072 0001410 279.6205  80.4488 15.27582263 88589
